#aV2021  1  5  0  0  0.00000000     288 DD+AD WGS84 FIT  NGA
## 2139 172800.00000000   300.00000000 59219 0.0000000000000
+   32     1  2  3  4  5  6  7  8  9 10 11 12 13 14 15 16 17
+         18 19 20 21 22 23 24 25 26 27 28 29 30 31 32  0  0
+          0  0  0  0  0  0  0  0  0  0  0  0  0  0  0  0  0
+          0  0  0  0  0  0  0  0  0  0  0  0  0  0  0  0  0
+          0  0  0  0  0  0  0  0  0  0  0  0  0  0  0  0  0
++         2  2  2  2  2  2  2  2  2  2  2  2  2  2  2  2  2
++         2  2  2  2  2  2  2  2  2  2  2  2  2  2  2  0  0
++         0  0  0  0  0  0  0  0  0  0  0  0  0  0  0  0  0
++         0  0  0  0  0  0  0  0  0  0  0  0  0  0  0  0  0
++         0  0  0  0  0  0  0  0  0  0  0  0  0  0  0  0  0
%c cc cc ccc ccc cccc cccc cccc cccc ccccc ccccc ccccc ccccc
%c cc cc ccc ccc cccc cccc cccc cccc ccccc ccccc ccccc ccccc
%f  0.0000000  0.000000000  0.00000000000  0.000000000000000
%f  0.0000000  0.000000000  0.00000000000  0.000000000000000
%i    0    0    0    0      0      0      0      0         0
%i    0    0    0    0      0      0      0      0         0
/*      NGA, ST. LOUIS,MO.                                  
/*   EPHEMERIS COMPUTED FROM 2 DAYS OF DATA                 
/*   EPOCHA v5 SMOOTHER                                     
/*   G2139 IERS2010 SATAF SATAPC                            
*  2021  1  5  6 40  0.00000000
P  1  21349.553361  14674.804364  -6851.072579    785.315781                    
V  1  -8250.006918  -1862.090046 -30451.314700     -0.060482                    
P  2  -1594.488201 -16463.875964  21439.891465   -562.483371                    
V  2  24418.801918   8076.306474   8281.374547     -0.042743                    
P  3  12789.587428  17049.445096  15831.968761    -48.175530                    
V  3    426.107882  20265.152120 -21956.117287     -0.098574                    
P  4  14328.566979   7952.798546  20912.936517   -170.226346                    
V  4 -21502.225141  15580.847772   8760.021457     -0.030740                    
P  5  -2946.752746 -26265.038410   1135.581961    -30.171285                    
V  5   3360.441156   1168.515504  31703.894877     -0.009885                    
P  6  13279.745462  -9474.725143  21033.733922     -4.639843                    
V  6  23965.614818  11300.118551 -10027.167029     -0.000800                    
P  7  25036.931755   5422.132387  -7574.616077      9.641438                    
V  7   7994.548217   6454.293266  29267.050599      0.146518                    
P  8   6956.707002  13502.496696 -21759.853206     -5.464545                    
V  8 -22277.171002  16383.474255   3325.764605     -0.013822                    
P  9  21807.195915  -3374.044793  14731.294783   -309.362086                    
V  9 -13652.222212  13165.186582  23102.809673     -0.041671                    
P 10 -12232.968663  12673.308547 -19694.274711    -32.133477                    
V 10  -4039.494560 -24998.295541 -13766.798062     -0.086228                    
P 11  15193.473013  12842.866491 -17884.314030    -61.744399                    
V 11 -21929.798206   3819.220545 -16672.516227      0.105762                    
P 12  -9764.659109 -20746.426360  13293.373091     17.255302                    
V 12   1199.654649 -17249.913716 -25426.833907     -0.052129                    
P 13   4139.248370 -17615.743810 -19538.095746     82.501874                    
V 13  22095.702841 -10730.674459  14573.615058      0.040910                    
P 14  13633.611689 -10353.478813 -20314.002766     79.933497                    
V 14   2609.587032  25671.572728 -11339.610738      0.072286                    
P 15  -9791.454833 -12801.748847 -21455.322967   -178.471203                    
V 15  19807.045296 -17701.998612   1912.984564      0.025933                    
P 16   -501.703015  26247.373694   1432.779755   -260.530613                    
V 16  -2780.909462  -2069.979324  32327.570163     -0.055250                    
P 17  21857.095567 -15051.193467   1227.870661    376.223484                    
V 17   2010.275377   1222.543057 -32201.329879      0.048598                    
P 18 -24232.099124  -3447.875353 -10389.731880    338.829118                    
V 18 -10942.849905  -7656.427554  28017.281276      0.030689                    
P 19  18835.150743 -16887.698854   7665.179870    -56.035780                    
V 19   9831.402908  -3224.157778 -30237.311558      0.049980                    
P 20 -16128.733371   -222.062997 -21191.256216    525.302533                    
V 20  -6180.140485 -26107.730565   4723.788689     -0.001725                    
P 21  16608.395441  15768.321036 -13049.107562     84.028196                    
V 21 -17386.787039  -3794.024982 -24905.351247      0.033940                    
P 22  11116.685436  22719.309231   8567.608104   -703.647001                    
V 22  -1011.768669  11035.205679 -28444.805750      0.064963                    
P 23 -15168.370443   1005.330872 -21806.176230    114.596468                    
V 23  -3571.262037 -27386.970703   1188.638461      0.019717                    
P 24 -18981.289497 -15508.205297 -10940.351503      4.099498                    
V 24  13594.955566   2013.394154 -26630.344051     -0.006039                    
P 25 -15057.012899  -7579.163022  20343.033439     53.486105                    
V 25  -1986.842372 -26255.516821 -10847.051631      0.075180                    
P 26  -5938.515426  22417.126757  12666.835252     25.212971                    
V 26  -5270.701623 -15686.492968  25460.988915      0.057376                    
P 27  -6017.422499  19037.317109 -17482.698741    -49.588102                    
V 27 -18682.237971  11731.233220  19719.205994     -0.078453                    
P 28  12285.536594 -14037.526535 -18411.132990    633.930134                    
V 28   1655.917410  24446.255516 -16837.479176     -0.050884                    
P 29 -21377.091809   1087.677500  15716.475207   -269.757130                    
V 29  16147.735248 -11814.290820  22686.356702     -0.074065                    
P 30  20514.444429  -3684.368981 -16541.920813   -363.892854                    
V 30  18102.767053  11000.737957  19726.458358     -0.061424                    
P 31 -11527.429598  11090.899936  21195.257658    -91.963963                    
V 31 -24251.870672 -11936.046154  -6459.412845     -0.023584                    
P 32 -20778.852942  16367.742467   1075.390442     12.532531                    
V 32  -2854.983421  -1722.813492 -31736.187106      0.022234                    
EOF
